{"type": "FeatureCollection", "features": [ {"type": "Feature", "properties": {"norad_id": 66578, "name": "STARLINK-35743", "group": "last-30-days", "lat": 36.26760617847334, "lon": 172.7412155250262, "alt_km": 409.98848212705525, "timestamp": "2025-12-12T18:57:42.885636+00:00", "meta": {"OBJECT_NAME": "STARLINK-35743", "OBJECT_ID": "2025-268X", "EPOCH": "2025-12-12T06:00:00.999648", "MEAN_MOTION": 15.50524791, "ECCENTRICITY": 0.00013229, "INCLINATION": 43, "RA_OF_ASC_NODE": 123.9611, "ARG_OF_PERICENTER": 263.567, "MEAN_ANOMALY": 18.3756, "EPHEMERIS_TYPE": 0, "CLASSIFICATION_TYPE": "U", "NORAD_CAT_ID": 66578, "ELEMENT_SET_NO": 999, "REV_AT_EPOCH": 459, "BSTAR": 0.001169512, "MEAN_MOTION_DOT": 0.00068739, "MEAN_MOTION_DDOT": 0}, "tle": {"line1": "1 66578U 25268X   25346.25001157  .00068739  00000+0  11695-2 0  9992", "line2": "2 66578  43.0000 123.9611 0001322 263.5670  18.3756 15.50524791  4598"}}, "geometry": {"type": "Point", "coordinates": [172.7412155250262, 36.26760617847334]}}, {"type": "Feature", "properties": {"norad_id": 66579, "name": "STARLINK-35868", "group": "last-30-days", "lat": 37.05469253525319, "lon": 174.91892945253366, "alt_km": 410.0178060286398, "timestamp": "2025-12-12T18:57:42.885649+00:00", "meta": {"OBJECT_NAME": "STARLINK-35868", "OBJECT_ID": "2025-268Y", "EPOCH": "2025-12-12T06:00:00.999648", "MEAN_MOTION": 15.50523136, "ECCENTRICITY": 0.00015327, "INCLINATION": 43.0001, "RA_OF_ASC_NODE": 123.9562, "ARG_OF_PERICENTER": 263.6662, "MEAN_ANOMALY": 20.1988, "EPHEMERIS_TYPE": 0, "CLASSIFICATION_TYPE": "U", "NORAD_CAT_ID": 66579, "ELEMENT_SET_NO": 999, "REV_AT_EPOCH": 459, "BSTAR": 0.0011271898, "MEAN_MOTION_DOT": 0.00066214, "MEAN_MOTION_DDOT": 0}, "tle": {"line1": "1 66579U 25268Y   25346.25001157  .00066214  00000+0  11272-2 0  9990", "line2": "2 66579  43.0001 123.9562 0001532 263.6662  20.1988 15.50523136  4590"}}, "geometry": {"type": "Point", "coordinates": [174.91892945253366, 37.05469253525319]}}, {"type": "Feature", "properties": {"norad_id": 66580, "name": "STARLINK-35872", "group": "last-30-days", "lat": 37.79970130720701, "lon": 177.1378108357439, "alt_km": 409.79043721145626, "timestamp": "2025-12-12T18:57:42.885660+00:00", "meta": {"OBJECT_NAME": "STARLINK-35872", "OBJECT_ID": "2025-268Z", "EPOCH": "2025-12-12T06:00:00.999648", "MEAN_MOTION": 15.50524003, "ECCENTRICITY": 0.00013471, "INCLINATION": 43.0002, "RA_OF_ASC_NODE": 123.9519, "ARG_OF_PERICENTER": 264.3658, "MEAN_ANOMALY": 21.412, "EPHEMERIS_TYPE": 0, "CLASSIFICATION_TYPE": "U", "NORAD_CAT_ID": 66580, "ELEMENT_SET_NO": 999, "REV_AT_EPOCH": 459, "BSTAR": 0.0011346422, "MEAN_MOTION_DOT": 0.0006666, "MEAN_MOTION_DDOT": 0}, "tle": {"line1": "1 66580U 25268Z   25346.25001157  .00066660  00000+0  11346-2 0  9999", "line2": "2 66580  43.0002 123.9519 0001347 264.3658  21.4120 15.50524003  4598"}}, "geometry": {"type": "Point", "coordinates": [177.1378108357439, 37.79970130720701]}}, {"type": "Feature", "properties": {"norad_id": 66581, "name": "STARLINK-35744", "group": "last-30-days", "lat": 38.50880826320475, "lon": 179.42295352303245, "alt_km": 409.54908439598057, "timestamp": "2025-12-12T18:57:42.885670+00:00", "meta": {"OBJECT_NAME": "STARLINK-35744", "OBJECT_ID": "2025-268AA", "EPOCH": "2025-12-12T06:00:00.999648", "MEAN_MOTION": 15.50523301, "ECCENTRICITY": 0.00015603, "INCLINATION": 43.0001, "RA_OF_ASC_NODE": 123.9467, "ARG_OF_PERICENTER": 286.3497, "MEAN_ANOMALY": 1.3366, "EPHEMERIS_TYPE": 0, "CLASSIFICATION_TYPE": "U", "NORAD_CAT_ID": 66581, "ELEMENT_SET_NO": 999, "REV_AT_EPOCH": 454, "BSTAR": 0.0014566356, "MEAN_MOTION_DOT": 0.00085884, "MEAN_MOTION_DDOT": 0}, "tle": {"line1": "1 66581U 25268AA  25346.25001157  .00085884  00000+0  14566-2 0  9996", "line2": "2 66581  43.0001 123.9467 0001560 286.3497   1.3366 15.50523301  4546"}}, "geometry": {"type": "Point", "coordinates": [179.42295352303245, 38.50880826320475]}}, {"type": "Feature", "properties": {"norad_id": 66582, "name": "STARLINK-35746", "group": "last-30-days", "lat": 39.15736524018651, "lon": -178.30282255097245, "alt_km": 409.6530502675532, "timestamp": "2025-12-12T18:57:42.885680+00:00", "meta": {"OBJECT_NAME": "STARLINK-35746", "OBJECT_ID": "2025-268AB", "EPOCH": "2025-12-12T06:00:00.999648", "MEAN_MOTION": 15.50529472, "ECCENTRICITY": 0.00013903, "INCLINATION": 43, "RA_OF_ASC_NODE": 123.9418, "ARG_OF_PERICENTER": 266.5229, "MEAN_ANOMALY": 23.0827, "EPHEMERIS_TYPE": 0, "CLASSIFICATION_TYPE": "U", "NORAD_CAT_ID": 66582, "ELEMENT_SET_NO": 999, "REV_AT_EPOCH": 459, "BSTAR": 0.00084758754, "MEAN_MOTION_DOT": 0.0004961, "MEAN_MOTION_DDOT": 0}, "tle": {"line1": "1 66582U 25268AB  25346.25001157  .00049610  00000+0  84759-3 0  9996", "line2": "2 66582  43.0000 123.9418 0001390 266.5229  23.0827 15.50529472  4599"}}, "geometry": {"type": "Point", "coordinates": [-178.30282255097245, 39.15736524018651]}}, {"type": "Feature", "properties": {"norad_id": 66583, "name": "STARLINK-35941", "group": "last-30-days", "lat": 39.773494863293735, "lon": -175.9372255981364, "alt_km": 409.5833542982664, "timestamp": "2025-12-12T18:57:42.885689+00:00", "meta": {"OBJECT_NAME": "STARLINK-35941", "OBJECT_ID": "2025-268AC", "EPOCH": "2025-12-12T06:00:00.999648", "MEAN_MOTION": 15.50553196, "ECCENTRICITY": 0.00014083, "INCLINATION": 43.0002, "RA_OF_ASC_NODE": 123.9371, "ARG_OF_PERICENTER": 269.7135, "MEAN_ANOMALY": 21.8037, "EPHEMERIS_TYPE": 0, "CLASSIFICATION_TYPE": "U", "NORAD_CAT_ID": 66583, "ELEMENT_SET_NO": 999, "REV_AT_EPOCH": 459, "BSTAR": 0.00036018907, "MEAN_MOTION_DOT": 0.00020826, "MEAN_MOTION_DDOT": 0}, "tle": {"line1": "1 66583U 25268AC  25346.25001157  .00020826  00000+0  36019-3 0  9991", "line2": "2 66583  43.0002 123.9371 0001408 269.7135  21.8037 15.50553196  4590"}}, "geometry": {"type": "Point", "coordinates": [-175.9372255981364, 39.773494863293735]}}, {"type": "Feature", "properties": {"norad_id": 66584, "name": "STARLINK-35939", "group": "last-30-days", "lat": 40.33400829608646, "lon": -173.55917829708133, "alt_km": 409.4669440270709, "timestamp": "2025-12-12T18:57:42.885699+00:00", "meta": {"OBJECT_NAME": "STARLINK-35939", "OBJECT_ID": "2025-268AD", "EPOCH": "2025-12-12T06:00:00.999648", "MEAN_MOTION": 15.50480412, "ECCENTRICITY": 0.00014866, "INCLINATION": 43.0001, "RA_OF_ASC_NODE": 123.9317, "ARG_OF_PERICENTER": 272.583, "MEAN_ANOMALY": 20.8895, "EPHEMERIS_TYPE": 0, "CLASSIFICATION_TYPE": "U", "NORAD_CAT_ID": 66584, "ELEMENT_SET_NO": 999, "REV_AT_EPOCH": 459, "BSTAR": 0.0018545127, "MEAN_MOTION_DOT": 0.00109604, "MEAN_MOTION_DDOT": 0}, "tle": {"line1": "1 66584U 25268AD  25346.25001157  .00109604  00000+0  18545-2 0  9997", "line2": "2 66584  43.0001 123.9317 0001486 272.5830  20.8895 15.50480412  4591"}}, "geometry": {"type": "Point", "coordinates": [-173.55917829708133, 40.33400829608646]}}, {"type": "Feature", "properties": {"norad_id": 66585, "name": "STARLINK-35963", "group": "last-30-days", "lat": 40.85152022203981, "lon": -171.10898287326313, "alt_km": 409.6721902225918, "timestamp": "2025-12-12T18:57:42.885709+00:00", "meta": {"OBJECT_NAME": "STARLINK-35963", "OBJECT_ID": "2025-268AE", "EPOCH": "2025-12-12T06:00:00.999648", "MEAN_MOTION": 15.50527522, "ECCENTRICITY": 0.00017954, "INCLINATION": 43.0002, "RA_OF_ASC_NODE": 123.9278, "ARG_OF_PERICENTER": 261.1321, "MEAN_ANOMALY": 34.2304, "EPHEMERIS_TYPE": 0, "CLASSIFICATION_TYPE": "U", "NORAD_CAT_ID": 66585, "ELEMENT_SET_NO": 999, "REV_AT_EPOCH": 459, "BSTAR": 0.00108338, "MEAN_MOTION_DOT": 0.00063617, "MEAN_MOTION_DDOT": 0}, "tle": {"line1": "1 66585U 25268AE  25346.25001157  .00063617  00000+0  10834-2 0  9994", "line2": "2 66585  43.0002 123.9278 0001795 261.1321  34.2304 15.50527522  4599"}}, "geometry": {"type": "Point", "coordinates": [-171.10898287326313, 40.85152022203981]}}, {"type": "Feature", "properties": {"norad_id": 66586, "name": "TJS-21", "group": "last-30-days", "lat": 44.78504724860781, "lon": -167.64928490907963, "alt_km": 24525.439944971058, "timestamp": "2025-12-12T18:57:42.885722+00:00", "meta": {"OBJECT_NAME": "TJS-21", "OBJECT_ID": "2025-269A", "EPOCH": "2025-12-10T17:31:22.184832", "MEAN_MOTION": 2.00567425, "ECCENTRICITY": 0.6805766, "INCLINATION": 63.269, "RA_OF_ASC_NODE": 162.5612, "ARG_OF_PERICENTER": 269.7806, "MEAN_ANOMALY": 18.6565, "EPHEMERIS_TYPE": 0, "CLASSIFICATION_TYPE": "U", "NORAD_CAT_ID": 66586, "ELEMENT_SET_NO": 999, "REV_AT_EPOCH": 39, "BSTAR": -0.044965385, "MEAN_MOTION_DOT": 1.083e-05, "MEAN_MOTION_DDOT": 0}, "tle": {"line1": "1 66586U 25269A   25344.73011788  .00001083  00000+0 -44965-1 0  9999", "line2": "2 66586  63.2690 162.5612 6805766 269.7806  18.6565  2.00567425   392"}}, "geometry": {"type": "Point", "coordinates": [-167.64928490907963, 44.78504724860781]}}, {"type": "Feature", "properties": {"norad_id": 66587, "name": "CZ-3B R/B", "group": "last-30-days", "lat": 3.28422937068776, "lon": 172.202943408968, "alt_km": 18286.146919438237, "timestamp": "2025-12-12T18:57:42.885744+00:00", "meta": {"OBJECT_NAME": "CZ-3B R/B", "OBJECT_ID": "2025-269B", "EPOCH": "2025-12-10T19:33:40.006368", "MEAN_MOTION": 2.03086829, "ECCENTRICITY": 0.7519519, "INCLINATION": 51.3442, "RA_OF_ASC_NODE": 170.0917, "ARG_OF_PERICENTER": 228.3676, "MEAN_ANOMALY": 37.5722, "EPHEMERIS_TYPE": 0, "CLASSIFICATION_TYPE": "U", "NORAD_CAT_ID": 66587, "ELEMENT_SET_NO": 999, "REV_AT_EPOCH": 41, "BSTAR": 0.0011692039, "MEAN_MOTION_DOT": 0.00057137, "MEAN_MOTION_DDOT": 1.092514e-06}, "tle": {"line1": "1 66587U 25269B   25344.81504637  .00057137  10925-5  11692-2 0  9994", "line2": "2 66587  51.3442 170.0917 7519519 228.3676  37.5722  2.03086829   418"}}, "geometry": {"type": "Point", "coordinates": [172.202943408968, 3.28422937068776]}}]}